STARLINK-1672
1 46537U 20070F   26060.73360848  .00058026  00000+0  97302-3 0  9991
2 46537  53.0494 177.0677 0002913  54.2626 305.8654 15.51285619298808
